[{"OBJECT_NAME":"STARLINK-5058","OBJECT_ID":"2023-015H","EPOCH":"2026-03-09T02:32:22.301088","MEAN_MOTION":15.02731068,"ECCENTRICITY":6.189e-5,"INCLINATION":43.0045,"RA_OF_ASC_NODE":329.3796,"ARG_OF_PERICENTER":311.3387,"MEAN_ANOMALY":48.7402,"EPHEMERIS_TYPE":0,"CLASSIFICATION_TYPE":"U","NORAD_CAT_ID":55456,"ELEMENT_SET_NO":999,"REV_AT_EPOCH":17066,"BSTAR":0.0019281234,"MEAN_MOTION_DOT":0.00026074,"MEAN_MOTION_DDOT":0},{"OBJECT_NAME":"ELECTRON KICK STAGE R\/B","OBJECT_ID":"2022-127B","EPOCH":"2026-03-09T17:09:40.821984","MEAN_MOTION":14.86457617,"ECCENTRICITY":0.01108806,"INCLINATION":98.1925,"RA_OF_ASC_NODE":123.6736,"ARG_OF_PERICENTER":332.423,"MEAN_ANOMALY":27.1129,"EPHEMERIS_TYPE":0,"CLASSIFICATION_TYPE":"U","NORAD_CAT_ID":54024,"ELEMENT_SET_NO":999,"REV_AT_EPOCH":18462,"BSTAR":0.00041708846,"MEAN_MOTION_DOT":4.056e-5,"MEAN_MOTION_DDOT":0}]
